ONEWEB-0634             
1 56075U 23043AF  25298.58810513 -.00001685  00000+0 -45094-2 0  9997
2 56075  87.8964 306.0513 0002189  85.1993 274.9387 13.15555356125557
ONEWEB-0635             
1 56076U 23043AG  25298.73545318 -.00000087  00000+0 -26523-3 0  9995
2 56076  87.8960 305.9780 0001556  92.2567 267.8741 13.15546299125608
ONEWEB-0636             
1 56077U 23043AH  25298.72754759 -.00000043  00000+0 -14784-3 0  9994
2 56077  87.8957 305.9977 0001619  91.2122 268.9194 13.15547784125580
ONEWEB-0637             
1 56078U 23043AJ  25298.56907781  .00000005  00000+0 -22030-4 0  9993
2 56078  87.8962 306.0437 0001766  81.8839 278.2491 13.15545609125581
ONEWEB-0647             
1 56079U 23043AK  25298.71645760  .00000245  00000+0  61760-3 0  9994
2 56079  87.8962 306.0277 0001713  95.4333 264.6993 13.15547915125595
ONEWEB-0651             
1 56080U 23043AL  25298.55957234  .00000200  00000+0  49840-3 0  9996
2 56080  87.8964 306.0517 0001616  86.8434 273.2881 13.15547083126773
ONEWEB-0718             
1 56081U 23043AM  25298.78300933  .00000135  00000+0  32430-3 0  9994
2 56081  87.8962 305.9878 0002338  84.4685 275.6712 13.15549927125614
ONEWEB-0561             
1 56710U 23068A   25298.80627154  .00000052  00000+0  96908-4 0  9999
2 56710  87.9191 321.1977 0001471 103.9575 256.1722 13.20770139118568
